[{"OBJECT_NAME":"OBJECT E","OBJECT_ID":"2023-091E","EPOCH":"2026-03-09T22:26:33.073728","MEAN_MOTION":15.22514482,"ECCENTRICITY":0.00108779,"INCLINATION":97.5235,"RA_OF_ASC_NODE":130.4024,"ARG_OF_PERICENTER":84.6411,"MEAN_ANOMALY":275.6066,"EPHEMERIS_TYPE":0,"CLASSIFICATION_TYPE":"U","NORAD_CAT_ID":57170,"ELEMENT_SET_NO":999,"REV_AT_EPOCH":14905,"BSTAR":0.00044574871,"MEAN_MOTION_DOT":0.00010283,"MEAN_MOTION_DDOT":0},{"OBJECT_NAME":"YAOGAN-43 03B","OBJECT_ID":"2024-190B","EPOCH":"2026-03-09T13:02:57.184224","MEAN_MOTION":15.23292973,"ECCENTRICITY":0.00065493,"INCLINATION":34.9874,"RA_OF_ASC_NODE":104.3622,"ARG_OF_PERICENTER":178.8126,"MEAN_ANOMALY":181.2605,"EPHEMERIS_TYPE":0,"CLASSIFICATION_TYPE":"U","NORAD_CAT_ID":61618,"ELEMENT_SET_NO":999,"REV_AT_EPOCH":7666,"BSTAR":0.00046413742,"MEAN_MOTION_DOT":0.00011265,"MEAN_MOTION_DDOT":0}]
